[{"OBJECT_NAME":"STARLINK-3523","OBJECT_ID":"2022-016R","EPOCH":"2026-03-09T22:48:17.189280","MEAN_MOTION":15.08854313,"ECCENTRICITY":8.863e-5,"INCLINATION":53.2174,"RA_OF_ASC_NODE":317.9517,"ARG_OF_PERICENTER":106.2132,"MEAN_ANOMALY":253.8958,"EPHEMERIS_TYPE":0,"CLASSIFICATION_TYPE":"U","NORAD_CAT_ID":51729,"ELEMENT_SET_NO":999,"REV_AT_EPOCH":22360,"BSTAR":3.6313793e-5,"MEAN_MOTION_DOT":2.9e-6,"MEAN_MOTION_DDOT":0},{"OBJECT_NAME":"CZ-4B DEB","OBJECT_ID":"2006-015F","EPOCH":"2026-03-09T03:45:22.603968","MEAN_MOTION":14.99561687,"ECCENTRICITY":0.00700337,"INCLINATION":97.7654,"RA_OF_ASC_NODE":137.4599,"ARG_OF_PERICENTER":35.4601,"MEAN_ANOMALY":355.3004,"EPHEMERIS_TYPE":0,"CLASSIFICATION_TYPE":"U","NORAD_CAT_ID":29539,"ELEMENT_SET_NO":999,"REV_AT_EPOCH":5458,"BSTAR":0.0013707202,"MEAN_MOTION_DOT":0.00017712,"MEAN_MOTION_DDOT":0}]
